{"fetched_at":"2026-03-29T16:36:15Z","count":15609,"tles":[{"name":"STARLINK-34892","line1":"1 65350U 25189AD  26087.78991949  .00017058  00000+0  58676-3 0  9998","line2":"2 65350  53.1596 117.8399 0001481  84.7223 275.3947 15.30199116 33984","category":"Starlink"}]}